     2.11           N: GPS NAV DATA                         RINEX VERSION / TYPE
teqc  2019Feb25                         20221121 12:27:40UTCPGM / RUN BY / DATE
OSX ker:10.11.6|Core i5|gcc 4.3 -m64|OSX ker:10.10+|=+      COMMENT
    8.3819D-09  1.4901D-08 -5.9605D-08 -5.9605D-08          ION ALPHA
    8.3968D+04  1.6384D+04 -1.3107D+05 -6.5536D+04          ION BETA
    4.656612873077D-09 1.598721155460D-14    61440     1551 DELTA-UTC: A0,A1,T,W
                                                            END OF HEADER
26 09  9 26 12  0  0.0 6.170338019729D-05-1.136868377216D-12 0.000000000000D+00
    1.300000000000D+01 3.906250000000D+01 3.817301863088D-09 2.281229162328D+00
    1.799315214157D-06 1.968546363059D-02 5.844980478287D-06 5.153609493256D+03
    5.616000000000D+05-3.539025783539D-08-3.760374132276D-01-3.613531589508D-07
    9.923330693298D-01 2.823750000000D+02 1.029702375397D+00-7.545314292626D-09
    1.207193141583D-10 1.000000000000D+00 1.550000000000D+03 0.000000000000D+00
    2.000000000000D+00 0.000000000000D+00-6.053596735001D-09 1.300000000000D+01
    5.544180000000D+05 4.000000000000D+00
12 09  9 26 12  0  0.0-2.132551744580D-04 5.570655048359D-12 0.000000000000D+00
    5.400000000000D+01-7.300000000000D+01 4.325180161115D-09 2.881914022532D+00
   -3.753229975700D-06 3.072536783293D-03 7.834285497665D-06 5.153570922852D+03
    5.616000000000D+05-3.911554813385D-08 1.665809429889D+00 1.098960638046D-07
    9.678650549387D-01 2.310312500000D+02-5.883615250363D-01-7.855684363643D-09
    6.607418082628D-11 1.000000000000D+00 1.550000000000D+03 0.000000000000D+00
    2.000000000000D+00 0.000000000000D+00-1.164153218269D-08 5.400000000000D+01
    5.544180000000D+05 4.000000000000D+00
30 09  9 26 12  0  0.0 1.800362952054D-04 3.069544618484D-12 0.000000000000D+00
    4.400000000000D+01-6.228125000000D+01 4.850559188117D-09 3.681051934474D-01
   -3.205612301826D-06 1.191628398374D-02 7.353723049164D-06 5.153668416977D+03
    5.616000000000D+05-1.303851604462D-07 1.616071619595D+00 2.235174179077D-08
    9.530007437119D-01 2.358750000000D+02 1.457328803251D+00-8.356419506986D-09
    6.428839215530D-12 1.000000000000D+00 1.550000000000D+03 0.000000000000D+00
    2.000000000000D+00 0.000000000000D+00-7.916241884232D-09 4.400000000000D+01
    5.544180000000D+05 4.000000000000D+00
31 09  9 26 12  0  0.0-6.384588778019D-05 5.684341886081D-13 0.000000000000D+00
    1.100000000000D+02-3.671875000000D+01 4.352681306648D-09 2.659950848830D+00
   -1.776963472366D-06 7.054313085973D-03 4.682689905167D-06 5.153796897888D+03
    5.616000000000D+05 1.993030309677D-07 6.113842641401D-01 0.000000000000D+00
    9.743468806814D-01 2.940937500000D+02-1.141392462252D+00-7.989261356232D-09
    3.571577341961D-12 1.000000000000D+00 1.550000000000D+03 0.000000000000D+00
    2.800000000000D+00 0.000000000000D+00-1.303851604462D-08 1.100000000000D+02
    5.544180000000D+05 4.000000000000D+00
20 09  9 26 12  0  0.0 7.138168439269D-05-9.094947017729D-13 0.000000000000D+00
    1.200000000000D+02 5.115625000000D+01 4.865559812953D-09 8.471873421476D-01
    2.518296241760D-06 3.839856479317D-03 7.189810276032D-06 5.153768629074D+03
    5.616000000000D+05-2.607703208923D-08-1.508892253385D+00-1.490116119385D-08
    9.400513337342D-01 2.279687500000D+02 1.314998052296D+00-8.276059016792D-09
   -1.410773050075D-10 1.000000000000D+00 1.550000000000D+03 0.000000000000D+00
    2.000000000000D+00 0.000000000000D+00-7.450580596924D-09 1.200000000000D+02
    5.544180000000D+05 4.000000000000D+00
17 09  9 26 12  0  0.0 8.804863318801D-05 3.069544618484D-12 0.000000000000D+00
    9.900000000000D+01-1.550000000000D+01 4.656979696183D-09-6.685407061010D-01
   -9.313225746155D-07 4.676328739151D-03 8.208677172661D-06 5.153733697891D+03
    5.616000000000D+05 1.378357410431D-07 2.725779630085D+00 9.872019290924D-08
    9.601090846029D-01 2.237812500000D+02-2.646876011182D+00-8.002119034663D-09
    1.321483616526D-11 1.000000000000D+00 1.550000000000D+03 0.000000000000D+00
    2.800000000000D+00 0.000000000000D+00-1.024454832077D-08 9.900000000000D+01
    5.544180000000D+05 4.000000000000D+00
32 09  9 26 12  0  0.0 1.893816515803D-04-7.162270776462D-12 0.000000000000D+00
    7.000000000000D+01 5.693750000000D+01 4.229104730616D-09-2.701565358835D+00
    2.996996045113D-06 1.327348535415D-02 7.027760148048D-06 5.153713148117D+03
    5.616000000000D+05 8.940696716309D-08-1.396703652325D+00 1.639127731323D-07
    9.620412760807D-01 2.385000000000D+02-1.112765772601D+00-7.723893159725D-09
   -5.643092200298D-11 1.000000000000D+00 1.550000000000D+03 0.000000000000D+00
    2.000000000000D+00 0.000000000000D+00-3.259629011154D-09 7.000000000000D+01
    5.544180000000D+05 4.000000000000D+00
 4 09  9 26 12  0  0.0-2.831444144249D-04-1.739408617141D-11 0.000000000000D+00
    1.060000000000D+02 2.325000000000D+01 4.968064082668D-09 1.086666538720D+00
    1.473352313042D-06 8.793874643743D-03 7.569789886475D-06 5.153802997589D+03
    5.616000000000D+05-1.247972249985D-07-2.525593599740D+00 8.195638656616D-08
    9.401980146783D-01 2.242500000000D+02 5.198892961617D-01-8.203198839016D-09
   -2.575107263554D-10 1.000000000000D+00 1.550000000000D+03 0.000000000000D+00
    2.800000000000D+00 0.000000000000D+00-6.053596735001D-09 1.060000000000D+02
    5.575020000000D+05 4.000000000000D+00
29 09  9 26 12  0  0.0 6.086425855756D-05 3.410605131648D-12 0.000000000000D+00
    4.500000000000D+01-1.490625000000D+01 4.591976988559D-09 1.932319927875D+00
   -8.475035429001D-07 3.053705790080D-03 8.046627044678D-06 5.153600927353D+03
    5.616000000000D+05 8.009374141693D-08 2.733983101210D+00-1.490116119385D-08
    9.603762456283D-01 2.214687500000D+02-1.274593732494D+00-7.876756669960D-09
    6.321691895271D-11 1.000000000000D+00 1.550000000000D+03 0.000000000000D+00
    2.000000000000D+00 0.000000000000D+00-8.847564458847D-09 4.500000000000D+01
    5.587620000000D+05 4.000000000000D+00
23 09  9 26 12  0  0.0 3.881878219545D-04-3.410605131648D-13 0.000000000000D+00
    1.400000000000D+01 3.637500000000D+01 4.357324357192D-09-1.825550813633D+00
    1.706182956696D-06 6.395476986654D-03 5.463138222694D-06 5.153770990372D+03
    5.616000000000D+05-2.048909664154D-08-4.283237365343D-01-7.823109626770D-08
    9.698557046230D-01 2.847500000000D+02 2.974598632567D+00-8.046763751438D-09
    1.589351917173D-10 1.000000000000D+00 1.550000000000D+03 0.000000000000D+00
    2.000000000000D+00 0.000000000000D+00-2.002343535423D-08 1.400000000000D+01
    5.596920000000D+05 4.000000000000D+00
 4 09  9 26 11 59 44.0-2.831397578120D-04-1.739408617141D-11 0.000000000000D+00
    2.900000000000D+01 2.325000000000D+01 4.968421240402D-09 1.084333014685D+00
    1.473352313042D-06 8.793870336376D-03 7.569789886475D-06 5.153802989960D+03
    5.615840000000D+05-1.247972249985D-07-2.525593487095D+00 8.195638656616D-08
    9.401980336963D-01 2.242500000000D+02 5.198893107909D-01-8.203555996750D-09
   -2.571535686212D-10 1.000000000000D+00 1.550000000000D+03 0.000000000000D+00
    2.000000000000D+00 0.000000000000D+00-6.053596735001D-09 2.900000000000D+01
    5.596980000000D+05 4.000000000000D+00
 2 09  9 26 12  0  0.0 1.755794510245D-04 3.296918293927D-12 0.000000000000D+00
    7.800000000000D+01 1.971875000000D+01 4.925205154564D-09-1.743866317660D+00
    1.078471541405D-06 9.094382519834D-03 7.543712854385D-06 5.153709394455D+03
    5.616000000000D+05-8.381903171539D-08-2.543813098952D+00-1.043081283569D-07
    9.410180841289D-01 2.237812500000D+02 2.896827512676D+00-8.147482232481D-09
   -1.285767843106D-11 1.000000000000D+00 1.550000000000D+03 0.000000000000D+00
    2.000000000000D+00 0.000000000000D+00-1.722946763039D-08 7.800000000000D+01
    5.599020000000D+05 4.000000000000D+00
30 09  9 26 14  0  0.0 1.800581812859D-04 3.069544618484D-12 0.000000000000D+00
    4.500000000000D+01-7.940625000000D+01 4.716625037793D-09 1.418144984299D+00
   -4.293397068977D-06 1.191800134256D-02 7.525086402893D-06 5.153673036575D+03
    5.688000000000D+05-1.881271600723D-07 1.616011111841D+00-2.440065145493D-07
    9.530018350488D-01 2.320000000000D+02 1.457473870597D+00-8.156054018102D-09
    1.225051028293D-10 1.000000000000D+00 1.550000000000D+03 0.000000000000D+00
    2.000000000000D+00 0.000000000000D+00-7.916241884232D-09 4.500000000000D+01
    5.616180000000D+05 4.000000000000D+00
14 09  9 26 14  0  0.0-4.569767042994D-05 5.115907697473D-12 0.000000000000D+00
    1.700000000000D+01 5.121875000000D+01 3.930163707094D-09-1.204522741893D-01
    2.644956111908D-06 4.955048672855D-03 5.753710865974D-06 5.153652816772D+03
    5.688000000000D+05-4.842877388000D-08-3.937432307003D-01 5.401670932770D-08
    9.879444950309D-01 2.860625000000D+02-2.151035698471D+00-7.941402219850D-09
    1.367914121971D-10 1.000000000000D+00 1.550000000000D+03 0.000000000000D+00
    2.000000000000D+00 0.000000000000D+00-8.847564458847D-09 1.700000000000D+01
    5.616180000000D+05 4.000000000000D+00
12 09  9 26 14  0  0.0-2.132146619260D-04 5.570655048359D-12 0.000000000000D+00
    5.800000000000D+01-7.346875000000D+01 4.365538985079D-09-2.351200997805D+00
   -3.801658749580D-06 3.073213039897D-03 8.191913366318D-06 5.153569448471D+03
    5.688000000000D+05-1.136213541031D-07 1.665752851532D+00 6.519258022308D-08
    9.678655464792D-01 2.233750000000D+02-5.881893205604D-01-7.868542042074D-09
    8.357490980188D-11 1.000000000000D+00 1.550000000000D+03 0.000000000000D+00
    2.000000000000D+00 0.000000000000D+00-1.164153218269D-08 5.800000000000D+01
    5.616180000000D+05 4.000000000000D+00
